[{"OBJECT_NAME":"OBJECT Y","OBJECT_ID":"2023-085Y","EPOCH":"2026-03-09T22:38:54.992256","MEAN_MOTION":15.32500153,"ECCENTRICITY":0.00063298,"INCLINATION":97.4849,"RA_OF_ASC_NODE":180.8653,"ARG_OF_PERICENTER":67.4431,"MEAN_ANOMALY":292.748,"EPHEMERIS_TYPE":0,"CLASSIFICATION_TYPE":"U","NORAD_CAT_ID":57026,"ELEMENT_SET_NO":999,"REV_AT_EPOCH":15160,"BSTAR":0.00065512761,"MEAN_MOTION_DOT":0.00020524,"MEAN_MOTION_DDOT":0},{"OBJECT_NAME":"STARLINK-33786","OBJECT_ID":"2025-071X","EPOCH":"2026-03-09T11:30:48.479328","MEAN_MOTION":15.30179796,"ECCENTRICITY":0.00016492,"INCLINATION":53.1571,"RA_OF_ASC_NODE":141.1484,"ARG_OF_PERICENTER":29.4064,"MEAN_ANOMALY":330.7029,"EPHEMERIS_TYPE":0,"CLASSIFICATION_TYPE":"U","NORAD_CAT_ID":63514,"ELEMENT_SET_NO":999,"REV_AT_EPOCH":5235,"BSTAR":0.00029895946,"MEAN_MOTION_DOT":8.5e-5,"MEAN_MOTION_DDOT":0}]
